NORAD_CAT_ID,OBJECT_NAME,OBJECT_TYPE,EPOCH,MEAN_MOTION,ECCENTRICITY,INCLINATION,RA_OF_ASC_NODE,ARG_OF_PERICENTER,MEAN_ANOMALY,BSTAR,MEAN_MOTION_DOT,MEAN_MOTION_DDOT,TLE_LINE0,TLE_LINE1,TLE_LINE2,SEMIMAJOR_AXIS,PERIOD,APOGEE,PERIGEE,DECAYED
49145.0,STARLINK-3119,PAYLOAD,2024-02-13 03:04:47,14.98329791,0.0002566,70.0022,359.4812,244.1101,115.9794,-3.925e-05,-5.61e-06,0.0,0 STARLINK-3119,1 49145U 21082R   24044.12832529 -.00000561  00000-0 -39250-4 0  9999,2 49145  70.0022 359.4812 0002566 244.1101 115.9794 14.98329791133781,6950.194,96.107,573.842,570.275,0.0
49145.0,STARLINK-3119,PAYLOAD,2024-02-13 14:17:43,14.98332531,0.0002693,70.0019,358.3014,268.5386,91.5465,-9.8363e-05,-1.266e-05,0.0,0 STARLINK-3119,1 49145U 21082R   24044.59564564 -.00001266  00000-0 -98363-4 0  9994,2 49145  70.0019 358.3014 0002693 268.5386  91.5465 14.98332531133853,6950.185,96.107,573.922,570.178,0.0
49145.0,STARLINK-3119,PAYLOAD,2024-02-13 22:18:24,14.98331002,0.0002918,70.0012,357.4605,267.5051,92.5774,-3.4191e-05,-5.01e-06,0.0,0 STARLINK-3119,1 49145U 21082R   24044.92944584 -.00000501  00000-0 -34191-4 0  9995,2 49145  70.0012 357.4605 0002918 267.5051  92.5774 14.98331002133902,6950.19,96.107,574.083,570.027,0.0
49145.0,STARLINK-3119,PAYLOAD,2024-02-14 04:42:55,14.98339236,0.0002895,70.001,356.7873,266.1572,93.9256,4.4164e-05,4.34e-06,0.0,0 STARLINK-3119,1 49145U 21082R   24045.19647771  .00000434  00000-0  44164-4 0  9997,2 49145  70.0010 356.7873 0002895 266.1572  93.9256 14.98339236133947,6950.164,96.106,574.041,570.017,0.0
49145.0,STARLINK-3119,PAYLOAD,2024-02-14 14:19:44,14.98337415,0.0002574,70.0033,355.7786,284.694,75.3934,-3.467e-05,-5.07e-06,0.0,0 STARLINK-3119,1 49145U 21082R   24045.59704077 -.00000507  00000-0 -34670-4 0  9998,2 49145  70.0033 355.7786 0002574 284.6940  75.3934 14.98337415134004,6950.17,96.107,573.824,570.246,0.0
49145.0,STARLINK-3119,PAYLOAD,2024-02-14 22:20:25,14.98325752,0.0002544,70.0005,354.9348,269.55,90.5368,1.3317e-05,6.6e-07,0.0,0 STARLINK-3119,1 49145U 21082R   24045.93084800  .00000066  00000-0  13317-4 0  9994,2 49145  70.0005 354.9348 0002544 269.5500  90.5368 14.98325752134055,6950.206,96.107,573.839,570.303,0.0
49145.0,STARLINK-3119,PAYLOAD,2024-02-15 03:08:49,14.98324904,0.0002614,70.0004,354.4297,268.5416,91.5444,2.0287e-06,-6.9e-07,0.0,0 STARLINK-3119,1 49145U 21082R   24046.13112919 -.00000069  00000-0  20287-5 0  9999,2 49145  70.0004 354.4297 0002614 268.5416  91.5444 14.98324904134082,6950.209,96.107,573.89,570.257,0.0
49145.0,STARLINK-3119,PAYLOAD,2024-02-15 06:21:05,14.98323902,0.0002751,70.0013,354.0945,267.5352,92.5492,1.2505e-05,5.6e-07,0.0,0 STARLINK-3119,1 49145U 21082R   24046.26465020  .00000056  00000-0  12505-4 0  9995,2 49145  70.0013 354.0945 0002751 267.5352  92.5492 14.98323902134102,6950.212,96.107,573.989,570.165,0.0
49145.0,STARLINK-3119,PAYLOAD,2024-02-15 22:22:26,14.98325722,0.0002966,70.0011,352.4107,269.941,90.141,4.6012e-05,4.56e-06,0.0,0 STARLINK-3119,1 49145U 21082R   24046.93224931  .00000456  00000-0  46012-4 0  9997,2 49145  70.0011 352.4107 0002966 269.9410  90.1410 14.98325722134208,6950.206,96.107,574.133,570.01,0.0
49145.0,STARLINK-3119,PAYLOAD,2024-02-16 04:46:58,14.98336308,0.0002822,70.0012,351.7377,270.0507,90.0328,3.2836e-05,2.99e-06,0.0,0 STARLINK-3119,1 49145U 21082R   24047.19928304  .00000299  00000-0  32836-4 0  9995,2 49145  70.0012 351.7377 0002822 270.0507  90.0328 14.98336308134244,6950.173,96.107,574.0,570.077,0.0
49145.0,STARLINK-3119,PAYLOAD,2024-02-16 06:23:05,14.98337878,0.0002815,70.0013,351.5693,269.9857,90.098,5.2947e-05,5.39e-06,0.0,0 STARLINK-3119,1 49145U 21082R   24047.26604138  .00000539  00000-0  52947-4 0  9991,2 49145  70.0013 351.5693 0002815 269.9857  90.0980 14.98337878134259,6950.169,96.106,573.99,570.077,0.0
49145.0,STARLINK-3119,PAYLOAD,2024-02-16 22:24:27,14.98323518,0.0002751,70.0017,349.8861,272.6448,87.4396,9.4778e-05,1.038e-05,0.0,0 STARLINK-3119,1 49145U 21082R   24047.93364922  .00001038  00000-0  94778-4 0  9992,2 49145  70.0017 349.8861 0002751 272.6448  87.4396 14.98323518134354,6950.213,96.107,573.99,570.166,0.0
49145.0,STARLINK-3119,PAYLOAD,2024-02-17 03:12:51,14.9832561,0.0002547,70.0022,349.3828,268.6999,91.3869,0.00011675,1.3e-05,0.0,0 STARLINK-3119,1 49145U 21082R   24048.13392758  .00001300  00000-0  11675-3 0  9999,2 49145  70.0022 349.3828 0002547 268.6999  91.3869 14.98325610134384,6950.206,96.107,573.842,570.301,0.0
49145.0,STARLINK-3119,PAYLOAD,2024-02-17 12:49:39,14.98327863,0.0002425,70.0028,348.3737,267.5308,92.5573,7.9658e-07,-8.3e-07,0.0,0 STARLINK-3119,1 49145U 21082R   24048.53448992 -.00000083  00000-0  79658-6 0  9991,2 49145  70.0028 348.3737 0002425 267.5308  92.5573 14.98327863134449,6950.199,96.107,573.75,570.379,0.0
49145.0,STARLINK-3119,PAYLOAD,2024-02-17 22:26:28,14.98329661,0.0002709,70.0021,347.362,272.1305,87.9544,5.8299e-05,6.03e-06,0.0,0 STARLINK-3119,1 49145U 21082R   24048.93504674  .00000603  00000-0  58299-4 0  9998,2 49145  70.0021 347.3620 0002709 272.1305  87.9544 14.98329661134507,6950.194,96.107,573.942,570.176,0.0
49145.0,STARLINK-3119,PAYLOAD,2024-02-18 03:14:52,14.98330814,0.0002648,70.0022,346.8572,270.0832,90.0024,7.1671e-05,7.62e-06,0.0,0 STARLINK-3119,1 49145U 21082R   24049.13532544  .00000762  00000-0  71671-4 0  9993,2 49145  70.0022 346.8572 0002648 270.0832  90.0024 14.98330814134535,6950.19,96.107,573.896,570.215,0.0
49145.0,STARLINK-3119,PAYLOAD,2024-02-18 12:51:39,14.98371332,0.0002716,70.0022,345.847,266.829,93.2559,-0.00062205,-7.515e-05,0.0,0 STARLINK-3119,1 49145U 21082R   24049.53587327 -.00007515  00000-0 -62205-3 0  9993,2 49145  70.0022 345.8470 0002716 266.8290  93.2559 14.98371332134592,6950.065,96.104,573.818,570.042,0.0
49145.0,STARLINK-3119,PAYLOAD,2024-02-18 22:28:28,14.98329427,0.0002611,70.0017,344.8377,266.893,93.193,4.955e-06,-3.4e-07,0.0,0 STARLINK-3119,1 49145U 21082R   24049.93644644 -.00000034  00000-0  49550-5 0  9991,2 49145  70.0017 344.8377 0002611 266.8930  93.1930 14.98329427134653,6950.195,96.107,573.874,570.245,0.0
49145.0,STARLINK-3119,PAYLOAD,2024-02-19 03:16:53,14.98325503,0.0002855,70.0011,344.3329,267.8178,92.2654,-6.8018e-05,-9.04e-06,0.0,0 STARLINK-3119,1 49145U 21082R   24050.13673087 -.00000904  00000-0 -68018-4 0  9994,2 49145  70.0011 344.3329 0002855 267.8178  92.2654 14.98325503134681,6950.207,96.107,574.056,570.088,0.0
49145.0,STARLINK-3119,PAYLOAD,2024-02-19 12:53:43,14.98310546,0.0002215,70.0042,343.3214,272.4894,87.6011,-0.00019249,-2.388e-05,0.0,0 STARLINK-3119,1 49145U 21082R   24050.53730767 -.00002388  00000-0 -19249-3 0  9996,2 49145  70.0042 343.3214 0002215 272.4894  87.6011 14.98310546134747,6950.253,96.108,573.658,570.579,0.0
49145.0,STARLINK-3119,PAYLOAD,2024-02-19 19:18:15,14.98304373,0.000311,70.0009,342.6476,267.8739,92.2064,-5.5691e-05,-7.57e-06,0.0,0 STARLINK-3119,1 49145U 21082R   24050.80434773 -.00000757  00000-0 -55691-4 0  9994,2 49145  70.0009 342.6476 0003110 267.8739  92.2064 14.98304373134788,6950.272,96.109,574.299,569.976,0.0
49145.0,STARLINK-3119,PAYLOAD,2024-02-19 22:30:31,14.98310197,0.0002749,70.0018,342.3123,266.2762,93.8083,-0.00015863,-1.984e-05,0.0,0 STARLINK-3119,1 49145U 21082R   24050.93786928 -.00001984  00000-0 -15863-3 0  9999,2 49145  70.0018 342.3123 0002749 266.2762  93.8083 14.98310197134802,6950.254,96.108,574.03,570.209,0.0
49145.0,STARLINK-3119,PAYLOAD,2024-02-20 03:18:55,14.98314778,0.0002729,70.0013,341.8065,264.8634,95.2214,-0.00013457,-1.698e-05,0.0,0 STARLINK-3119,1 49145U 21082R   24051.13814761 -.00001698  00000-0 -13457-3 0  9998,2 49145  70.0013 341.8065 0002729 264.8634  95.2214 14.98314778134830,6950.24,96.108,574.002,570.208,0.0
49145.0,STARLINK-3119,PAYLOAD,2024-02-20 04:55:03,14.98316515,0.0002745,70.0012,341.6381,266.3603,93.7242,-0.00012267,-1.556e-05,0.0,0 STARLINK-3119,1 49145U 21082R   24051.20490705 -.00001556  00000-0 -12267-3 0  9995,2 49145  70.0012 341.6381 0002745 266.3603  93.7242 14.98316515134845,6950.235,96.108,574.007,570.192,0.0
49145.0,STARLINK-3119,PAYLOAD,2024-02-20 19:20:15,14.98319741,0.0003494,69.9999,340.1238,259.0688,101.0078,0.00010109,1.113e-05,0.0,0 STARLINK-3119,1 49145U 21082R   24051.80573954  .00001113  00000-0  10109-3 0  9999,2 49145  69.9999 340.1238 0003494 259.0688 101.0078 14.98319741134939,6950.225,96.108,574.518,569.661,0.0
49145.0,STARLINK-3119,PAYLOAD,2024-02-20 22:32:31,14.98326596,0.0002905,70.0014,339.7877,263.8469,96.2359,0.000138,1.554e-05,0.0,0 STARLINK-3119,1 49145U 21082R   24051.93925618  .00001554  00000-0  13800-3 0  9991,2 49145  70.0014 339.7877 0002905 263.8469  96.2359 14.98326596134954,6950.203,96.107,574.087,570.049,0.0
49145.0,STARLINK-3119,PAYLOAD,2024-02-21 03:20:55,14.98330633,0.0002197,70.0018,339.2813,256.3736,103.7179,0.00021301,2.45e-05,0.0,0 STARLINK-3119,1 49145U 21082R   24052.13953303  .00002450  00000-0  21301-3 0  9997,2 49145  70.0018 339.2813 0002197 256.3736 103.7179 14.98330633134984,6950.191,96.107,573.583,570.529,0.0
49145.0,STARLINK-3119,PAYLOAD,2024-02-21 12:57:43,14.98335725,0.0002138,70.0031,338.2734,293.7036,66.3898,0.00020053,2.301e-05,0.0,0 STARLINK-3119,1 49145U 21082R   24052.54009196  .00002301  00000-0  20053-3 0  9992,2 49145  70.0031 338.2734 0002138 293.7036  66.3898 14.98335725135040,6950.175,96.107,573.526,570.554,0.0
49145.0,STARLINK-3119,PAYLOAD,2024-02-21 22:34:32,14.9833094,0.0002548,70.0019,337.2628,268.5071,91.5796,0.00027151,3.148e-05,0.0,0 STARLINK-3119,1 49145U 21082R   24052.94065048  .00003148  00000-0  27151-3 0  9990,2 49145  70.0019 337.2628 0002548 268.5071  91.5796 14.98330940135109,6950.19,96.107,573.826,570.284,0.0
49145.0,STARLINK-3119,PAYLOAD,2024-02-22 03:22:56,14.98331174,0.0002472,70.0015,336.7573,259.1027,100.9854,0.00023076,2.662e-05,0.0,0 STARLINK-3119,1 49145U 21082R   24053.14093087  .00002662  00000-0  23076-3 0  9999,2 49145  70.0015 336.7573 0002472 259.1027 100.9854 14.98331174135134,6950.189,96.107,573.772,570.336,0.0
